{
  "norad_id": 43479,
  "name": "IRIDIUM 152",
  "history": [
    {
      "epoch": "2026-03-28T19:09:30.324096Z",
      "apogee_km": 779.2200372767566,
      "perigee_km": 776.1132735617193,
      "latitude_deg": 5.2273381303718166e-05,
      "longitude_deg": 8.365808500879911,
      "height_km": 780.735228893816,
      "semi_major_axis_km": 7155.803655419238,
      "eccentricity": 0.00021708,
      "inclination_deg": 86.3939,
      "raan_deg": 121.9557,
      "arg_perigee_deg": 90.7842,
      "mean_anomaly_deg": 269.3603,
      "mean_motion_rev_day": 14.342179
    },
    {
      "epoch": "2026-03-29T03:31:50.311776Z",
      "apogee_km": 779.2188459998642,
      "perigee_km": 776.1132274819192,
      "latitude_deg": 6.134972875722132e-05,
      "longitude_deg": -117.7072077424094,
      "height_km": 780.7338315034725,
      "semi_major_axis_km": 7155.803036740892,
      "eccentricity": 0.000217,
      "inclination_deg": 86.3938,
      "raan_deg": 121.8098,
      "arg_perigee_deg": 90.7558,
      "mean_anomaly_deg": 269.3887,
      "mean_motion_rev_day": 14.34218086
    },
    {
      "epoch": "2026-03-30T01:17:54.262464Z",
      "apogee_km": 779.2160176932257,
      "perigee_km": 776.1124035921457,
      "latitude_deg": -2.253991942958888e-05,
      "longitude_deg": -85.49694401033278,
      "height_km": 780.7342583160532,
      "semi_major_axis_km": 7155.801210642685,
      "eccentricity": 0.00021686,
      "inclination_deg": 86.3937,
      "raan_deg": 121.4305,
      "arg_perigee_deg": 90.8389,
      "mean_anomaly_deg": 269.3055,
      "mean_motion_rev_day": 14.34218635
    },
    {
      "epoch": "2026-03-30T13:01:10.219296Z",
      "apogee_km": 779.2053360481214,
      "perigee_km": 776.1207568800937,
      "latitude_deg": -6.929721257631478e-05,
      "longitude_deg": 98.00099838672277,
      "height_km": 780.7376062277967,
      "semi_major_axis_km": 7155.800046464107,
      "eccentricity": 0.00021553,
      "inclination_deg": 86.3937,
      "raan_deg": 121.2263,
      "arg_perigee_deg": 91.0105,
      "mean_anomaly_deg": 269.1337,
      "mean_motion_rev_day": 14.34218985
    },
    {
      "epoch": "2026-03-30T19:43:02.203392Z",
      "apogee_km": 779.2069037277688,
      "perigee_km": 776.1188898403107,
      "latitude_deg": 3.820507922929902e-06,
      "longitude_deg": -2.85736488480503,
      "height_km": 780.7386178759047,
      "semi_major_axis_km": 7155.799896784039,
      "eccentricity": 0.00021577,
      "inclination_deg": 86.3936,
      "raan_deg": 121.1096,
      "arg_perigee_deg": 91.0531,
      "mean_anomaly_deg": 269.0912,
      "mean_motion_rev_day": 14.3421903
    },
    {
      "epoch": "2026-03-31T12:27:42.138144Z",
      "apogee_km": 779.2042432922626,
      "perigee_km": 776.1189491695104,
      "latitude_deg": -7.422292872766188e-05,
      "longitude_deg": 104.99676720390109,
      "height_km": 780.73920278957,
      "semi_major_axis_km": 7155.798596230886,
      "eccentricity": 0.00021558,
      "inclination_deg": 86.3935,
      "raan_deg": 120.8178,
      "arg_perigee_deg": 91.1235,
      "mean_anomaly_deg": 269.0207,
      "mean_motion_rev_day": 14.34219421
    },
    {
      "epoch": "2026-04-01T18:36:06.158592Z",
      "apogee_km": 779.1983109987814,
      "perigee_km": 776.1313343375868,
      "latitude_deg": -1.4358283701998812e-05,
      "longitude_deg": 11.132981337880196,
      "height_km": 780.7716994739441,
      "semi_major_axis_km": 7155.801822668184,
      "eccentricity": 0.0002143,
      "inclination_deg": 86.3936,
      "raan_deg": 120.2919,
      "arg_perigee_deg": 92.2235,
      "mean_anomaly_deg": 267.9206,
      "mean_motion_rev_day": 14.34218451
    },
    {
      "epoch": "2026-04-02T07:59:50.202816Z",
      "apogee_km": 779.1214040783198,
      "perigee_km": 776.2180070656004,
      "latitude_deg": -1.6170752495978085e-05,
      "longitude_deg": 169.41602771136616,
      "height_km": 780.7504882961946,
      "semi_major_axis_km": 7155.806705571959,
      "eccentricity": 0.00020287,
      "inclination_deg": 86.3938,
      "raan_deg": 120.0586,
      "arg_perigee_deg": 91.3106,
      "mean_anomaly_deg": 268.8322,
      "mean_motion_rev_day": 14.34216983
    },
    {
      "epoch": "2026-04-03T14:08:14.175744Z",
      "apogee_km": 779.1237427973929,
      "perigee_km": 776.212761220876,
      "latitude_deg": 2.384799545316791e-05,
      "longitude_deg": 75.5531379337791,
      "height_km": 780.7507422501045,
      "semi_major_axis_km": 7155.805252009134,
      "eccentricity": 0.0002034,
      "inclination_deg": 86.3936,
      "raan_deg": 119.5334,
      "arg_perigee_deg": 91.3751,
      "mean_anomaly_deg": 268.7678,
      "mean_motion_rev_day": 14.3421742
    },
    {
      "epoch": "2026-04-04T13:34:46.165440Z",
      "apogee_km": 779.1146102191424,
      "perigee_km": 776.2208027958313,
      "latitude_deg": 6.083345053194791e-05,
      "longitude_deg": 82.54851154427625,
      "height_km": 780.7480845754569,
      "semi_major_axis_km": 7155.804706507487,
      "eccentricity": 0.0002022,
      "inclination_deg": 86.3934,
      "raan_deg": 119.1248,
      "arg_perigee_deg": 91.2991,
      "mean_anomaly_deg": 268.8437,
      "mean_motion_rev_day": 14.34217584
    },
    {
      "epoch": "2026-04-05T11:20:50.157600Z",
      "apogee_km": 779.1000507262452,
      "perigee_km": 776.2350097084372,
      "latitude_deg": -9.025018202825104e-06,
      "longitude_deg": 114.75850112695476,
      "height_km": 780.7480161218866,
      "semi_major_axis_km": 7155.804530217341,
      "eccentricity": 0.00020019,
      "inclination_deg": 86.3932,
      "raan_deg": 118.7454,
      "arg_perigee_deg": 91.3147,
      "mean_anomaly_deg": 268.8278,
      "mean_motion_rev_day": 14.34217637
    },
    {
      "epoch": "2026-04-05T14:41:46.156992Z",
      "apogee_km": 779.1001488994525,
      "perigee_km": 776.2349647548981,
      "latitude_deg": -1.0764957823132325e-05,
      "longitude_deg": 64.32923599526734,
      "height_km": 780.7462616763906,
      "semi_major_axis_km": 7155.804556827175,
      "eccentricity": 0.0002002,
      "inclination_deg": 86.3932,
      "raan_deg": 118.687,
      "arg_perigee_deg": 91.2434,
      "mean_anomaly_deg": 268.8991,
      "mean_motion_rev_day": 14.34217629
    },
    {
      "epoch": "2026-04-06T02:25:02.167392Z",
      "apogee_km": 779.1148548354004,
      "perigee_km": 776.2206180516996,
      "latitude_deg": -4.139046371659999e-05,
      "longitude_deg": -112.17314591649448,
      "height_km": 780.7525454445337,
      "semi_major_axis_km": 7155.80473644355,
      "eccentricity": 0.00020223,
      "inclination_deg": 86.3931,
      "raan_deg": 118.4827,
      "arg_perigee_deg": 91.4739,
      "mean_anomaly_deg": 268.6688,
      "mean_motion_rev_day": 14.34217575
    },
    {
      "epoch": "2026-04-07T18:36:14.173056Z",
      "apogee_km": 779.1068885443856,
      "perigee_km": 776.2288238312267,
      "latitude_deg": -9.63540117168207e-06,
      "longitude_deg": 2.6759201503101755,
      "height_km": 780.7576591746708,
      "semi_major_axis_km": 7155.804856187806,
      "eccentricity": 0.0002011,
      "inclination_deg": 86.3928,
      "raan_deg": 117.7822,
      "arg_perigee_deg": 91.6806,
      "mean_anomaly_deg": 268.462,
      "mean_motion_rev_day": 14.34217539
    },
    {
      "epoch": "2026-04-08T11:20:54.180384Z",
      "apogee_km": 779.1032623721849,
      "perigee_km": 776.2324965706384,
      "latitude_deg": 4.76905512274403e-05,
      "longitude_deg": 110.5296544439203,
      "height_km": 780.7544294109404,
      "semi_major_axis_km": 7155.804879471411,
      "eccentricity": 0.00020059,
      "inclination_deg": 86.3928,
      "raan_deg": 117.4903,
      "arg_perigee_deg": 91.555,
      "mean_anomaly_deg": 268.5876,
      "mean_motion_rev_day": 14.34217532
    },
    {
      "epoch": "2026-04-09T12:27:54.190080Z",
      "apogee_km": 779.1100602680108,
      "perigee_km": 776.2262707863047,
      "latitude_deg": -5.438839159468776e-05,
      "longitude_deg": 92.310299546615,
      "height_km": 780.7607266427906,
      "semi_major_axis_km": 7155.805165527157,
      "eccentricity": 0.0002015,
      "inclination_deg": 86.3926,
      "raan_deg": 117.0525,
      "arg_perigee_deg": 91.787,
      "mean_anomaly_deg": 268.3556,
      "mean_motion_rev_day": 14.34217446
    },
    {
      "epoch": "2026-04-10T10:13:58.190016Z",
      "apogee_km": 779.1077937581013,
      "perigee_km": 776.2282978076782,
      "latitude_deg": -1.6838551073073137e-05,
      "longitude_deg": 124.5201622194378,
      "height_km": 780.7665436245724,
      "semi_major_axis_km": 7155.8050457828895,
      "eccentricity": 0.0002012,
      "inclination_deg": 86.3926,
      "raan_deg": 116.673,
      "arg_perigee_deg": 92.026,
      "mean_anomaly_deg": 268.1166,
      "mean_motion_rev_day": 14.34217482
    },
    {
      "epoch": "2026-04-11T18:02:50.191584Z",
      "apogee_km": 779.1097508663279,
      "perigee_km": 776.2259615092844,
      "latitude_deg": 5.090839662161635e-05,
      "longitude_deg": 5.442317904929403,
      "height_km": 780.76966811254,
      "semi_major_axis_km": 7155.804856187806,
      "eccentricity": 0.0002015,
      "inclination_deg": 86.3925,
      "raan_deg": 116.1184,
      "arg_perigee_deg": 92.1554,
      "mean_anomaly_deg": 267.9873,
      "mean_motion_rev_day": 14.34217539
    },
    {
      "epoch": "2026-04-13T00:11:14.211168Z",
      "apogee_km": 779.1191348921775,
      "perigee_km": 776.2168834965487,
      "latitude_deg": 3.5264681130507973e-06,
      "longitude_deg": -88.42087359780959,
      "height_km": 780.771066607574,
      "semi_major_axis_km": 7155.805009194363,
      "eccentricity": 0.00020279,
      "inclination_deg": 86.3925,
      "raan_deg": 115.5931,
      "arg_perigee_deg": 92.1915,
      "mean_anomaly_deg": 267.9513,
      "mean_motion_rev_day": 14.34217493
    }
  ]
}